CSS (TIANHE)            
1 48274U 21035A   23280.89359211  .00054783  00000+0  56061-3 0  9996
2 48274  41.4726 189.8124 0010876 210.0998 149.9218 15.64056694139457
